<?xml version="1.0" encoding="UTF-8"?>
<ndm xmlns:xsi="http://www.w3.org/2001/XMLSchema-instance" xsi:noNamespaceSchemaLocation="https://sanaregistry.org/r/ndmxml_unqualified/ndmxml-2.0.0-master-2.0.xsd">
<omm id="CCSDS_OMM_VERS" version="2.0">
<header><CREATION_DATE/><ORIGINATOR/></header><body><segment><metadata><OBJECT_NAME>QIANFAN-49</OBJECT_NAME><OBJECT_ID>2024-232P</OBJECT_ID><CENTER_NAME>EARTH</CENTER_NAME><REF_FRAME>TEME</REF_FRAME><TIME_SYSTEM>UTC</TIME_SYSTEM><MEAN_ELEMENT_THEORY>SGP4</MEAN_ELEMENT_THEORY></metadata><data><meanElements><EPOCH>2025-12-21T19:14:57.742080</EPOCH><MEAN_MOTION>13.50980521</MEAN_MOTION><ECCENTRICITY>.001505</ECCENTRICITY><INCLINATION>89.0017</INCLINATION><RA_OF_ASC_NODE>40.3222</RA_OF_ASC_NODE><ARG_OF_PERICENTER>161.9420</ARG_OF_PERICENTER><MEAN_ANOMALY>198.2268</MEAN_ANOMALY></meanElements><tleParameters><EPHEMERIS_TYPE>0</EPHEMERIS_TYPE><CLASSIFICATION_TYPE>U</CLASSIFICATION_TYPE><NORAD_CAT_ID>62250</NORAD_CAT_ID><ELEMENT_SET_NO>999</ELEMENT_SET_NO><REV_AT_EPOCH>6906</REV_AT_EPOCH><BSTAR>.1034E-3</BSTAR><MEAN_MOTION_DOT>.79E-6</MEAN_MOTION_DOT><MEAN_MOTION_DDOT>0</MEAN_MOTION_DDOT></tleParameters></data></segment></body></omm>
<omm id="CCSDS_OMM_VERS" version="2.0">
<header><CREATION_DATE/><ORIGINATOR/></header><body><segment><metadata><OBJECT_NAME>QIANFAN-50</OBJECT_NAME><OBJECT_ID>2024-232Q</OBJECT_ID><CENTER_NAME>EARTH</CENTER_NAME><REF_FRAME>TEME</REF_FRAME><TIME_SYSTEM>UTC</TIME_SYSTEM><MEAN_ELEMENT_THEORY>SGP4</MEAN_ELEMENT_THEORY></metadata><data><meanElements><EPOCH>2025-12-21T19:50:29.522976</EPOCH><MEAN_MOTION>13.50977362</MEAN_MOTION><ECCENTRICITY>.001666</ECCENTRICITY><INCLINATION>89.0022</INCLINATION><RA_OF_ASC_NODE>40.3283</RA_OF_ASC_NODE><ARG_OF_PERICENTER>163.8825</ARG_OF_PERICENTER><MEAN_ANOMALY>196.2859</MEAN_ANOMALY></meanElements><tleParameters><EPHEMERIS_TYPE>0</EPHEMERIS_TYPE><CLASSIFICATION_TYPE>U</CLASSIFICATION_TYPE><NORAD_CAT_ID>62251</NORAD_CAT_ID><ELEMENT_SET_NO>999</ELEMENT_SET_NO><REV_AT_EPOCH>6909</REV_AT_EPOCH><BSTAR>.14523E-3</BSTAR><MEAN_MOTION_DOT>.106E-5</MEAN_MOTION_DOT><MEAN_MOTION_DDOT>0</MEAN_MOTION_DDOT></tleParameters></data></segment></body></omm>
<omm id="CCSDS_OMM_VERS" version="2.0">
<header><CREATION_DATE/><ORIGINATOR/></header><body><segment><metadata><OBJECT_NAME>QIANFAN-51</OBJECT_NAME><OBJECT_ID>2024-232R</OBJECT_ID><CENTER_NAME>EARTH</CENTER_NAME><REF_FRAME>TEME</REF_FRAME><TIME_SYSTEM>UTC</TIME_SYSTEM><MEAN_ELEMENT_THEORY>SGP4</MEAN_ELEMENT_THEORY></metadata><data><meanElements><EPOCH>2025-12-21T19:26:49.344576</EPOCH><MEAN_MOTION>13.50980122</MEAN_MOTION><ECCENTRICITY>.0014037</ECCENTRICITY><INCLINATION>89.0016</INCLINATION><RA_OF_ASC_NODE>40.3234</RA_OF_ASC_NODE><ARG_OF_PERICENTER>166.2161</ARG_OF_PERICENTER><MEAN_ANOMALY>193.9376</MEAN_ANOMALY></meanElements><tleParameters><EPHEMERIS_TYPE>0</EPHEMERIS_TYPE><CLASSIFICATION_TYPE>U</CLASSIFICATION_TYPE><NORAD_CAT_ID>62252</NORAD_CAT_ID><ELEMENT_SET_NO>999</ELEMENT_SET_NO><REV_AT_EPOCH>6908</REV_AT_EPOCH><BSTAR>.11457E-3</BSTAR><MEAN_MOTION_DOT>.86E-6</MEAN_MOTION_DOT><MEAN_MOTION_DDOT>0</MEAN_MOTION_DDOT></tleParameters></data></segment></body></omm>
<omm id="CCSDS_OMM_VERS" version="2.0">
<header><CREATION_DATE/><ORIGINATOR/></header><body><segment><metadata><OBJECT_NAME>QIANFAN-52</OBJECT_NAME><OBJECT_ID>2024-232S</OBJECT_ID><CENTER_NAME>EARTH</CENTER_NAME><REF_FRAME>TEME</REF_FRAME><TIME_SYSTEM>UTC</TIME_SYSTEM><MEAN_ELEMENT_THEORY>SGP4</MEAN_ELEMENT_THEORY></metadata><data><meanElements><EPOCH>2025-12-21T18:21:40.262112</EPOCH><MEAN_MOTION>13.50978230</MEAN_MOTION><ECCENTRICITY>.0016258</ECCENTRICITY><INCLINATION>89.0012</INCLINATION><RA_OF_ASC_NODE>40.2012</RA_OF_ASC_NODE><ARG_OF_PERICENTER>160.0020</ARG_OF_PERICENTER><MEAN_ANOMALY>200.1772</MEAN_ANOMALY></meanElements><tleParameters><EPHEMERIS_TYPE>0</EPHEMERIS_TYPE><CLASSIFICATION_TYPE>U</CLASSIFICATION_TYPE><NORAD_CAT_ID>62253</NORAD_CAT_ID><ELEMENT_SET_NO>999</ELEMENT_SET_NO><REV_AT_EPOCH>6916</REV_AT_EPOCH><BSTAR>.10781E-3</BSTAR><MEAN_MOTION_DOT>.82E-6</MEAN_MOTION_DOT><MEAN_MOTION_DDOT>0</MEAN_MOTION_DDOT></tleParameters></data></segment></body></omm>
<omm id="CCSDS_OMM_VERS" version="2.0">
<header><CREATION_DATE/><ORIGINATOR/></header><body><segment><metadata><OBJECT_NAME>QIANFAN-53</OBJECT_NAME><OBJECT_ID>2024-232T</OBJECT_ID><CENTER_NAME>EARTH</CENTER_NAME><REF_FRAME>TEME</REF_FRAME><TIME_SYSTEM>UTC</TIME_SYSTEM><MEAN_ELEMENT_THEORY>SGP4</MEAN_ELEMENT_THEORY></metadata><data><meanElements><EPOCH>2025-12-21T19:38:39.282144</EPOCH><MEAN_MOTION>13.50980617</MEAN_MOTION><ECCENTRICITY>.0015121</ECCENTRICITY><INCLINATION>89.0020</INCLINATION><RA_OF_ASC_NODE>40.3009</RA_OF_ASC_NODE><ARG_OF_PERICENTER>160.4050</ARG_OF_PERICENTER><MEAN_ANOMALY>199.7686</MEAN_ANOMALY></meanElements><tleParameters><EPHEMERIS_TYPE>0</EPHEMERIS_TYPE><CLASSIFICATION_TYPE>U</CLASSIFICATION_TYPE><NORAD_CAT_ID>62254</NORAD_CAT_ID><ELEMENT_SET_NO>999</ELEMENT_SET_NO><REV_AT_EPOCH>6913</REV_AT_EPOCH><BSTAR>.12786E-3</BSTAR><MEAN_MOTION_DOT>.95E-6</MEAN_MOTION_DOT><MEAN_MOTION_DDOT>0</MEAN_MOTION_DDOT></tleParameters></data></segment></body></omm>
<omm id="CCSDS_OMM_VERS" version="2.0">
<header><CREATION_DATE/><ORIGINATOR/></header><body><segment><metadata><OBJECT_NAME>QIANFAN-54</OBJECT_NAME><OBJECT_ID>2024-232U</OBJECT_ID><CENTER_NAME>EARTH</CENTER_NAME><REF_FRAME>TEME</REF_FRAME><TIME_SYSTEM>UTC</TIME_SYSTEM><MEAN_ELEMENT_THEORY>SGP4</MEAN_ELEMENT_THEORY></metadata><data><meanElements><EPOCH>2025-12-21T18:51:15.681024</EPOCH><MEAN_MOTION>13.50980850</MEAN_MOTION><ECCENTRICITY>.0002392</ECCENTRICITY><INCLINATION>89.0011</INCLINATION><RA_OF_ASC_NODE>39.9819</RA_OF_ASC_NODE><ARG_OF_PERICENTER>156.7928</ARG_OF_PERICENTER><MEAN_ANOMALY>203.3332</MEAN_ANOMALY></meanElements><tleParameters><EPHEMERIS_TYPE>0</EPHEMERIS_TYPE><CLASSIFICATION_TYPE>U</CLASSIFICATION_TYPE><NORAD_CAT_ID>62255</NORAD_CAT_ID><ELEMENT_SET_NO>999</ELEMENT_SET_NO><REV_AT_EPOCH>10063</REV_AT_EPOCH><BSTAR>.129E-3</BSTAR><MEAN_MOTION_DOT>.95E-6</MEAN_MOTION_DOT><MEAN_MOTION_DDOT>0</MEAN_MOTION_DDOT></tleParameters></data></segment></body></omm>
<omm id="CCSDS_OMM_VERS" version="2.0">
<header><CREATION_DATE/><ORIGINATOR/></header><body><segment><metadata><OBJECT_NAME>QIANFAN-55</OBJECT_NAME><OBJECT_ID>2025-016A</OBJECT_ID><CENTER_NAME>EARTH</CENTER_NAME><REF_FRAME>TEME</REF_FRAME><TIME_SYSTEM>UTC</TIME_SYSTEM><MEAN_ELEMENT_THEORY>SGP4</MEAN_ELEMENT_THEORY></metadata><data><meanElements><EPOCH>2025-12-21T19:28:43.547232</EPOCH><MEAN_MOTION>13.50990157</MEAN_MOTION><ECCENTRICITY>.0015888</ECCENTRICITY><INCLINATION>88.9784</INCLINATION><RA_OF_ASC_NODE>102.2744</RA_OF_ASC_NODE><ARG_OF_PERICENTER>325.7124</ARG_OF_PERICENTER><MEAN_ANOMALY>34.3000</MEAN_ANOMALY></meanElements><tleParameters><EPHEMERIS_TYPE>0</EPHEMERIS_TYPE><CLASSIFICATION_TYPE>U</CLASSIFICATION_TYPE><NORAD_CAT_ID>62785</NORAD_CAT_ID><ELEMENT_SET_NO>999</ELEMENT_SET_NO><REV_AT_EPOCH>4841</REV_AT_EPOCH><BSTAR>.26767E-3</BSTAR><MEAN_MOTION_DOT>.185E-5</MEAN_MOTION_DOT><MEAN_MOTION_DDOT>0</MEAN_MOTION_DDOT></tleParameters></data></segment></body></omm>
<omm id="CCSDS_OMM_VERS" version="2.0">
<header><CREATION_DATE/><ORIGINATOR/></header><body><segment><metadata><OBJECT_NAME>QIANFAN-56</OBJECT_NAME><OBJECT_ID>2025-016B</OBJECT_ID><CENTER_NAME>EARTH</CENTER_NAME><REF_FRAME>TEME</REF_FRAME><TIME_SYSTEM>UTC</TIME_SYSTEM><MEAN_ELEMENT_THEORY>SGP4</MEAN_ELEMENT_THEORY></metadata><data><meanElements><EPOCH>2025-12-21T19:52:26.842080</EPOCH><MEAN_MOTION>13.50981196</MEAN_MOTION><ECCENTRICITY>.0014587</ECCENTRICITY><INCLINATION>88.9757</INCLINATION><RA_OF_ASC_NODE>102.1067</RA_OF_ASC_NODE><ARG_OF_PERICENTER>328.6328</ARG_OF_PERICENTER><MEAN_ANOMALY>31.3952</MEAN_ANOMALY></meanElements><tleParameters><EPHEMERIS_TYPE>0</EPHEMERIS_TYPE><CLASSIFICATION_TYPE>U</CLASSIFICATION_TYPE><NORAD_CAT_ID>62786</NORAD_CAT_ID><ELEMENT_SET_NO>999</ELEMENT_SET_NO><REV_AT_EPOCH>4846</REV_AT_EPOCH><BSTAR>.22576E-3</BSTAR><MEAN_MOTION_DOT>.158E-5</MEAN_MOTION_DOT><MEAN_MOTION_DDOT>0</MEAN_MOTION_DDOT></tleParameters></data></segment></body></omm>

</ndm>
