QIANFAN-49              
1 62250U 24232P   25355.80205720  .00000079  00000+0  10340-3 0  9998
2 62250  89.0017  40.3222 0015050 161.9420 198.2268 13.50980521 69060
QIANFAN-50              
1 62251U 24232Q   25355.82673059  .00000106  00000+0  14523-3 0  9993
2 62251  89.0022  40.3283 0016660 163.8825 196.2859 13.50977362 69098
QIANFAN-51              
1 62252U 24232R   25355.81029334  .00000086  00000+0  11457-3 0  9994
2 62252  89.0016  40.3234 0014037 166.2161 193.9376 13.50980122 69089
QIANFAN-52              
1 62253U 24232S   25355.76504933  .00000082  00000+0  10781-3 0  9997
2 62253  89.0012  40.2012 0016258 160.0020 200.1772 13.50978230 69169
QIANFAN-53              
1 62254U 24232T   25355.81851021  .00000095  00000+0  12786-3 0  9998
2 62254  89.0020  40.3009 0015121 160.4050 199.7686 13.50980617 69137
QIANFAN-54              
1 62255U 24232U   25355.78559816  .00000095  00000+0  12900-3 0  9990
2 62255  89.0011  39.9819 0002392 156.7928 203.3332 13.50980850100639
QIANFAN-55              
1 62785U 25016A   25355.81161513  .00000185  00000+0  26767-3 0  9992
2 62785  88.9784 102.2744 0015888 325.7124  34.3000 13.50990157 48415
QIANFAN-56              
1 62786U 25016B   25355.82808845  .00000158  00000+0  22576-3 0  9994
2 62786  88.9757 102.1067 0014587 328.6328  31.3952 13.50981196 48467
